     3.00           N                   E                   RINEX VERSION / TYPE
BRD_USR             ESA                 20190108 012133  UTCPGM / RUN BY / DATE
 GAL   5.0250E+01  4.2969E-02 -4.6387E-03  0.0000E+00       IONOSPHERIC CORR
GAUT  0.0000000000E+00 0.000000000E+00  86400 2035 GSTB   0 TIME SYSTEM CORR
GPGA -3.7834979594E-10 1.065814104E-14 172800 2035 GSTB   0 TIME SYSTEM CORR
                                                            END OF HEADER
E01 2019 01 07 22 40 00-5.159715074115E-04-8.199663170672E-12 0.000000000000E+00
     2.400000000000E+01 9.418750000000E+01 2.554392114970E-09-8.560163029150E-02
     4.390254616737E-06 1.130525488406E-04 1.277588307858E-05 5.440624576569E+03
     1.680000000000E+05-1.117587089539E-08-2.947098414707E+00 1.434236764908E-07
     9.903158647565E-01 8.065625000000E+01-8.453475529644E-01-5.171643991159E-09
    -4.110885520597E-10 2.580000000000E+02 2.035000000000E+03 0.000000000000E+00
     3.120000000000E+00 0.000000000000E+00-4.423782229424E-09 0.000000000000E+00
     1.692000000000E+05 0.000000000000E+00 0.000000000000E+00 0.000000000000E+00
E02 2019 01 07 22 40 00 4.239392001182E-05 1.648459146963E-12 0.000000000000E+00
     2.400000000000E+01 9.125000000000E+01 2.395814080987E-09 2.476312376419E+00
     4.339963197708E-06 2.678697928786E-04 1.174956560135E-05 5.440629114151E+03
     1.680000000000E+05-2.048909664154E-08-2.947132999553E+00-9.685754776001E-08
     9.903244930473E-01 1.045625000000E+02-2.673789783220E-01-4.969135555870E-09
    -2.582250418238E-10 2.580000000000E+02 2.035000000000E+03 0.000000000000E+00
     3.120000000000E+00 0.000000000000E+00-6.286427378654E-09 0.000000000000E+00
     1.692000000000E+05 0.000000000000E+00 0.000000000000E+00 0.000000000000E+00
E03 2019 01 07 22 40 00-1.196594093926E-04-4.277467269276E-12 0.000000000000E+00
     2.400000000000E+01 4.209375000000E+01 3.496217060045E-09-2.607390624834E+00
     1.870095729828E-06 2.663094783202E-04 7.003545761108E-06 5.440612888336E+03
     1.680000000000E+05-4.097819328308E-08 1.243630689524E+00 1.303851604462E-08
     9.522722543960E-01 1.861250000000E+02 6.237512615609E-01-5.647735250843E-09
     6.353836091348E-10 2.580000000000E+02 2.035000000000E+03 0.000000000000E+00
     3.120000000000E+00 0.000000000000E+00-1.862645149231E-09 0.000000000000E+00
     1.692000000000E+05 0.000000000000E+00 0.000000000000E+00 0.000000000000E+00
E04 2019 01 07 22 40 00-1.953869359568E-04-7.872813512222E-12 0.000000000000E+00
     2.400000000000E+01 2.243750000000E+01 3.420142462662E-09-1.664698153429E+00
     1.108273863792E-06 7.459032349288E-05 7.346272468567E-06 5.440610683441E+03
     1.680000000000E+05 2.235174179077E-08 1.243681019758E+00-2.421438694000E-08
     9.523160380712E-01 1.790312500000E+02 2.041748439932E+00-5.563803183307E-09
     6.382408710084E-10 2.580000000000E+02 2.035000000000E+03 0.000000000000E+00
     3.120000000000E+00 0.000000000000E+00-8.149072527885E-09 0.000000000000E+00
     1.692000000000E+05 0.000000000000E+00 0.000000000000E+00 0.000000000000E+00
E05 2019 01 07 22 40 00 1.289327046834E-04-6.536993168993E-12 0.000000000000E+00
     2.400000000000E+01 3.578125000000E+01 3.449429396866E-09-2.771948439602E+00
     1.663342118263E-06 1.371674006805E-04 7.012858986855E-06 5.440614221573E+03
     1.680000000000E+05-4.097819328308E-08 1.243613927409E+00 7.450580596924E-09
     9.522853284949E-01 1.815625000000E+02 1.575785272433E+00-5.661307244742E-09
     6.428839215530E-10 2.580000000000E+02 2.035000000000E+03 0.000000000000E+00
     3.120000000000E+00 0.000000000000E+00-1.164153218269E-09 0.000000000000E+00
     1.692000000000E+05 0.000000000000E+00 0.000000000000E+00 0.000000000000E+00
E07 2019 01 07 22 40 00-1.083806855604E-04-7.105427357601E-12 0.000000000000E+00
     2.400000000000E+01 3.356250000000E+01 3.469787387715E-09 2.708976921682E+00
     1.635402441025E-06 1.384378410876E-04 7.376074790955E-06 5.440608398438E+03
     1.680000000000E+05 2.048909664154E-08 1.243632159757E+00 5.401670932770E-08
     9.523162970077E-01 1.766250000000E+02 2.014758427918E-02-5.624519998120E-09
     6.721708557570E-10 2.580000000000E+02 2.035000000000E+03 0.000000000000E+00
     3.120000000000E+00 0.000000000000E+00 0.000000000000E+00 0.000000000000E+00
     1.692000000000E+05 0.000000000000E+00 0.000000000000E+00 0.000000000000E+00
E08 2019 01 07 22 40 00 6.427857093513E-03-7.446487870766E-12 0.000000000000E+00
     2.400000000000E+01 3.734375000000E+01 3.369426064406E-09 3.041291934039E+00
     1.743435859680E-06 2.189319347963E-04 7.191672921181E-06 5.440610870361E+03
     1.680000000000E+05-9.313225746155E-09 1.234998993020E+00 4.470348358154E-08
     9.582598274139E-01 1.856562500000E+02 4.744689828290E-01-5.583446858687E-09
     6.721708557570E-10 2.580000000000E+02 2.035000000000E+03 0.000000000000E+00
     3.120000000000E+00 0.000000000000E+00-8.614733815193E-09 0.000000000000E+00
     1.692000000000E+05 0.000000000000E+00 0.000000000000E+00 0.000000000000E+00
E09 2019 01 07 22 40 00 6.564960698597E-03-1.131184035330E-11 0.000000000000E+00
     2.400000000000E+01 2.912500000000E+01 3.274422107110E-09-5.106383010835E-01
     1.501291990280E-06 2.459795214236E-04 7.197260856628E-06 5.440614618301E+03
     1.680000000000E+05-1.490116119385E-08 1.234995185044E+00-6.146728992462E-08
     9.582898274749E-01 1.827500000000E+02 9.815095265543E-02-5.547373927534E-09
     6.682421206809E-10 2.580000000000E+02 2.035000000000E+03 0.000000000000E+00
     3.120000000000E+00 0.000000000000E+00-3.259629011154E-09 0.000000000000E+00
     1.692000000000E+05 0.000000000000E+00 0.000000000000E+00 0.000000000000E+00
E11 2019 01 07 22 40 00 5.719274224248E-03 1.037392394210E-12 0.000000000000E+00
     2.400000000000E+01-1.107812500000E+02 2.928336262674E-09 2.047974496392E+00
    -5.194917321205E-06 2.478704554960E-04-8.568167686462E-08 5.440602661133E+03
     1.680000000000E+05 5.587935447693E-09-8.615571197694E-01-3.352761268616E-08
     9.819243911037E-01 3.539062500000E+02-3.651193864251E-01-5.769168880469E-09
    -2.871548182937E-10 2.580000000000E+02 2.035000000000E+03 0.000000000000E+00
     3.120000000000E+00 0.000000000000E+00-1.862645149231E-08 0.000000000000E+00
     1.692000000000E+05 0.000000000000E+00 0.000000000000E+00 0.000000000000E+00
E12 2019 01 07 22 40 00 5.892584915273E-03 8.435563358944E-11 0.000000000000E+00
     2.400000000000E+01-1.087812500000E+02 3.009053910602E-09-2.902142415481E+00
    -5.194917321205E-06 3.783578285947E-04-2.011656761169E-07 5.440602262497E+03
     1.680000000000E+05 6.332993507385E-08-8.615719947204E-01 3.911554813385E-08
     9.819382581041E-01 3.573125000000E+02-8.945340567283E-01-5.842743373714E-09
    -3.314423773340E-10 2.580000000000E+02 2.035000000000E+03 0.000000000000E+00
     3.120000000000E+00 0.000000000000E+00-1.536682248116E-08 0.000000000000E+00
     1.692000000000E+05 0.000000000000E+00 0.000000000000E+00 0.000000000000E+00
E13 2019 01 07 22 20 00 3.814534866251E-04 3.979039320257E-13 0.000000000000E+00
     2.200000000000E+01-1.255312500000E+02 2.914764268774E-09-1.681143617237E-02
    -5.736947059631E-06 3.369651967660E-04 2.700835466385E-07 5.440597625732E+03
     1.668000000000E+05-6.705522537231E-08-8.668480029216E-01-3.725290298462E-09
     9.851654246657E-01 3.482812500000E+02-1.584277685970E+00-5.823456856067E-09
    -3.371569010811E-10 2.580000000000E+02 2.035000000000E+03 0.000000000000E+00
     3.120000000000E+00 5.600000000000E+01-4.423782229424E-09 0.000000000000E+00
     1.692000000000E+05 0.000000000000E+00 0.000000000000E+00 0.000000000000E+00
E14 2019 01 07 22 40 00 6.463234196417E-03-5.599076757790E-12 0.000000000000E+00
     2.400000000000E+01-5.546875000000E+01 4.425184326689E-09-2.449776302033E+00
     4.563480615616E-07 1.663635233417E-01-9.240582585335E-06 5.289407131195E+03
     1.680000000000E+05 3.257766366005E-06-1.462467177194E+00 9.965151548386E-07
     8.825584074487E-01 4.869062500000E+02 1.454291214781E+00-6.788497053865E-09
     1.400058318049E-10 2.580000000000E+02 2.035000000000E+03 0.000000000000E+00
     3.120000000000E+00 5.600000000000E+01 3.306195139885E-08 0.000000000000E+00
     1.692000000000E+05 0.000000000000E+00 0.000000000000E+00 0.000000000000E+00
E15 2019 01 07 22 40 00 9.235767065547E-04-1.023181539495E-12 0.000000000000E+00
     2.400000000000E+01-1.271562500000E+02 2.952980146333E-09 1.002659693944E+00
    -6.014481186867E-06 3.860254073516E-04 5.178153514862E-07 5.440595762253E+03
     1.680000000000E+05-2.980232238770E-08-8.668661504204E-01-2.793967723846E-08
     9.851227016061E-01 3.419687500000E+02-1.672751268759E+00-5.819885278725E-09
    -3.482287908412E-10 2.580000000000E+02 2.035000000000E+03 0.000000000000E+00
     3.120000000000E+00 5.600000000000E+01 1.396983861923E-09 0.000000000000E+00
     1.692000000000E+05 0.000000000000E+00 0.000000000000E+00 0.000000000000E+00
E18 2019 01 07 22 40 00 5.623171455227E-03-2.843592028512E-11 0.000000000000E+00
     2.400000000000E+01 3.234375000000E+01 3.314780931074E-09 6.614670422202E-01
    -4.637986421585E-07 1.664101318456E-01 2.807006239891E-06 5.289345125198E+03
     1.680000000000E+05 2.603977918625E-06-1.445364930462E+00-6.407499313354E-06
     8.817637766806E-01 2.773125000000E+02 1.439034804936E+00-4.359467303597E-09
     1.277910372954E-09 2.580000000000E+02 2.035000000000E+03 0.000000000000E+00
     3.120000000000E+00 5.600000000000E+01 1.420266926289E-08 0.000000000000E+00
     1.692000000000E+05 0.000000000000E+00 0.000000000000E+00 0.000000000000E+00
